[{"OBJECT_NAME":"KINEIS-4D","OBJECT_ID":"2025-056C","EPOCH":"2026-03-09T21:47:10.964256","MEAN_MOTION":14.72298157,"ECCENTRICITY":4.628e-5,"INCLINATION":97.992,"RA_OF_ASC_NODE":195.3531,"ARG_OF_PERICENTER":272.0522,"MEAN_ANOMALY":88.0633,"EPHEMERIS_TYPE":0,"CLASSIFICATION_TYPE":"U","NORAD_CAT_ID":63302,"ELEMENT_SET_NO":999,"REV_AT_EPOCH":5252,"BSTAR":0.00050100773,"MEAN_MOTION_DOT":3.118e-5,"MEAN_MOTION_DDOT":0},{"OBJECT_NAME":"CZ-4B DEB","OBJECT_ID":"1999-057FV","EPOCH":"2026-03-09T18:08:11.920128","MEAN_MOTION":14.56267894,"ECCENTRICITY":0.00779996,"INCLINATION":98.4662,"RA_OF_ASC_NODE":135.5338,"ARG_OF_PERICENTER":105.2858,"MEAN_ANOMALY":21.1952,"EPHEMERIS_TYPE":0,"CLASSIFICATION_TYPE":"U","NORAD_CAT_ID":26283,"ELEMENT_SET_NO":999,"REV_AT_EPOCH":36664,"BSTAR":0.00064227025,"MEAN_MOTION_DOT":2.912e-5,"MEAN_MOTION_DDOT":0}]
